CALSPHERE 1             
1 00900U 64063C   18231.88919271  .00000226  00000-0  23433-3 0  9996
2 00900  90.1460  17.9224 0024917 261.3537 272.1217 13.73119773678832
CALSPHERE 2             
1 00902U 64063E   18231.47504229  .00000028  00000-0  28700-4 0  9999
2 00902  90.1529  20.3180 0016472 242.7193 184.2688 13.52663847469787
LCS 1                   
1 01361U 65034C   18231.16320798  .00000000  00000-0 -10689-2 0  9997
2 01361  32.1404 125.2767 0013579 214.5800 145.3814  9.89294620926745
TEMPSAT 1               
1 01512U 65065E   18231.51614552  .00000019  00000-0  20106-4 0  9998
2 01512  89.8380 235.2761 0069733 357.0972 157.4507 13.33412235579078
CALSPHERE 4(A)          
1 01520U 65065H   18231.56448185  .00000016  00000-0  14308-4 0  9993
2 01520  90.0669 125.8569 0067897 245.4619 190.0058 13.35767733581039
OPS 5712 (P/L 160)      
1 02826U 67053A   18231.56608194  .00000378  00000-0  11710-3 0  9994
2 02826  69.9295 321.1830 0004460 177.2255 182.8903 14.48427163650205
OPS 5712 (P/L 153)      
1 02874U 67053H   18232.14043008 -.00000045  00000-0  59710-5 0  9995
2 02874  69.9740 117.8153 0009796 297.0702  62.9403 13.96315403608252
SURCAL 150B             
1 02909U 67053J   18231.82728503  .00000548  00000-0  12564-3 0  9999
2 02909  69.9493  14.3135 0005198 250.2619 109.7960 14.60876920659844
RIGIDSPHERE 2 (LCS 4)   
1 05398U 71067E   18231.85374301  .00000159  00000-0  50014-4 0  9991
2 05398  87.6196  48.2737 0061774 315.0703  44.5503 14.33718210464217
